{
  "type": "FeatureCollection",
  "features": [
    {
      "type": "Feature",
      "properties": {
        "norad_id": 35616,
        "name": "IRIDIUM 33 DEB",
        "group": "iridium-33-debris",
        "lat": -13.34574198951638,
        "lon": -17.217640754135715,
        "alt_km": 635.0091647057943,
        "timestamp": "2025-12-17T09:00:17.533488+00:00",
        "meta_object_name": "IRIDIUM 33 DEB",
        "meta_object_id": "1997-051QN",
        "meta_epoch": "2025-12-16T10:22:36.830208",
        "meta_mean_motion": 14.81911189,
        "meta_eccentricity": 0.00107405,
        "meta_inclination": 86.3541,
        "meta_ra_of_asc_node": 344.0794,
        "meta_arg_of_pericenter": 150.4994,
        "meta_mean_anomaly": 209.6837,
        "meta_ephemeris_type": 0,
        "meta_classification_type": "U",
        "meta_norad_cat_id": 35616,
        "meta_element_set_no": 999,
        "meta_rev_at_epoch": 87629,
        "meta_bstar": 0.0011277405,
        "meta_mean_motion_dot": 8.962e-05,
        "meta_mean_motion_ddot": 0,
        "tle_line1": "1 35616U 97051QN  25350.43237072  .00008962  00000+0  11277-2 0  9990",
        "tle_line2": "2 35616  86.3541 344.0794 0010740 150.4994 209.6837 14.81911189876295"
      },
      "geometry": {
        "type": "Point",
        "coordinates": [
          -17.217640754135715,
          -13.34574198951638
        ]
      }
    },
    {
      "type": "Feature",
      "properties": {
        "norad_id": 35618,
        "name": "IRIDIUM 33 DEB",
        "group": "iridium-33-debris",
        "lat": -20.28557920395442,
        "lon": -9.87529267153047,
        "alt_km": 704.9059967458888,
        "timestamp": "2025-12-17T09:00:17.533506+00:00",
        "meta_object_name": "IRIDIUM 33 DEB",
        "meta_object_id": "1997-051QQ",
        "meta_epoch": "2025-12-13T19:06:39.662496",
        "meta_mean_motion": 14.52305973,
        "meta_eccentricity": 0.00288889,
        "meta_inclination": 86.3427,
        "meta_ra_of_asc_node": 353.0427,
        "meta_arg_of_pericenter": 17.6332,
        "meta_mean_anomaly": 342.5869,
        "meta_ephemeris_type": 0,
        "meta_classification_type": "U",
        "meta_norad_cat_id": 35618,
        "meta_element_set_no": 999,
        "meta_rev_at_epoch": 65409,
        "meta_bstar": 0.0005678553,
        "meta_mean_motion_dot": 2.341e-05,
        "meta_mean_motion_ddot": 0,
        "tle_line1": "1 35618U 97051QQ  25347.79629239  .00002341  00000+0  56786-3 0  9997",
        "tle_line2": "2 35618  86.3427 353.0427 0028888  17.6332 342.5869 14.52305973654095"
      },
      "geometry": {
        "type": "Point",
        "coordinates": [
          -9.87529267153047,
          -20.28557920395442
        ]
      }
    },
    {
      "type": "Feature",
      "properties": {
        "norad_id": 35620,
        "name": "IRIDIUM 33 DEB",
        "group": "iridium-33-debris",
        "lat": 84.44437779282715,
        "lon": -104.0177135595009,
        "alt_km": 849.5681242556084,
        "timestamp": "2025-12-17T09:00:17.533523+00:00",
        "meta_object_name": "IRIDIUM 33 DEB",
        "meta_object_id": "1997-051QS",
        "meta_epoch": "2025-12-15T21:31:52.254048",
        "meta_mean_motion": 14.38162606,
        "meta_eccentricity": 0.01401972,
        "meta_inclination": 86.3888,
        "meta_ra_of_asc_node": 216.1206,
        "meta_arg_of_pericenter": 248.5026,
        "meta_mean_anomaly": 110.1177,
        "meta_ephemeris_type": 0,
        "meta_classification_type": "U",
        "meta_norad_cat_id": 35620,
        "meta_element_set_no": 999,
        "meta_rev_at_epoch": 60011,
        "meta_bstar": 0.0034337761,
        "meta_mean_motion_dot": 0.00011705,
        "meta_mean_motion_ddot": 0,
        "tle_line1": "1 35620U 97051QS  25349.89713257  .00011705  00000+0  34338-2 0  9999",
        "tle_line2": "2 35620  86.3888 216.1206 0140197 248.5026 110.1177 14.38162606600119"
      },
      "geometry": {
        "type": "Point",
        "coordinates": [
          -104.0177135595009,
          84.44437779282715
        ]
      }
    },
    {
      "type": "Feature",
      "properties": {
        "norad_id": 35622,
        "name": "IRIDIUM 33 DEB",
        "group": "iridium-33-debris",
        "lat": -26.70945908175775,
        "lon": 83.23422119730755,
        "alt_km": 557.2909003037521,
        "timestamp": "2025-12-17T09:00:17.533539+00:00",
        "meta_object_name": "IRIDIUM 33 DEB",
        "meta_object_id": "1997-051QU",
        "meta_epoch": "2025-12-14T12:14:43.972224",
        "meta_mean_motion": 15.04969242,
        "meta_eccentricity": 0.00054886,
        "meta_inclination": 86.2028,
        "meta_ra_of_asc_node": 262.7313,
        "meta_arg_of_pericenter": 323.1514,
        "meta_mean_anomaly": 209.8665,
        "meta_ephemeris_type": 0,
        "meta_classification_type": "U",
        "meta_norad_cat_id": 35622,
        "meta_element_set_no": 999,
        "meta_rev_at_epoch": 87386,
        "meta_bstar": 0.0048535985,
        "meta_mean_motion_dot": 0.00069411,
        "meta_mean_motion_ddot": 0,
        "tle_line1": "1 35622U 97051QU  25348.51023116  .00069411  00000+0  48536-2 0  9999",
        "tle_line2": "2 35622  86.2028 262.7313 0005488 323.1514 209.8665 15.04969242873864"
      },
      "geometry": {
        "type": "Point",
        "coordinates": [
          83.23422119730755,
          -26.70945908175775
        ]
      }
    },
    {
      "type": "Feature",
      "properties": {
        "norad_id": 35628,
        "name": "IRIDIUM 33 DEB",
        "group": "iridium-33-debris",
        "lat": 47.52633217670134,
        "lon": -176.98155581923845,
        "alt_km": 671.3515700327935,
        "timestamp": "2025-12-17T09:00:17.533555+00:00",
        "meta_object_name": "IRIDIUM 33 DEB",
        "meta_object_id": "1997-051RA",
        "meta_epoch": "2025-12-16T07:51:32.046336",
        "meta_mean_motion": 14.67635018,
        "meta_eccentricity": 0.00100441,
        "meta_inclination": 86.3573,
        "meta_ra_of_asc_node": 7.4758,
        "meta_arg_of_pericenter": 329.6051,
        "meta_mean_anomaly": 30.458,
        "meta_ephemeris_type": 0,
        "meta_classification_type": "U",
        "meta_norad_cat_id": 35628,
        "meta_element_set_no": 999,
        "meta_rev_at_epoch": 86499,
        "meta_bstar": 0.00094948025,
        "meta_mean_motion_dot": 5.421e-05,
        "meta_mean_motion_ddot": 0,
        "tle_line1": "1 35628U 97051RA  25350.32745424  .00005421  00000+0  94948-3 0  9990",
        "tle_line2": "2 35628  86.3573   7.4758 0010044 329.6051  30.4580 14.67635018864991"
      },
      "geometry": {
        "type": "Point",
        "coordinates": [
          -176.98155581923845,
          47.52633217670134
        ]
      }
    },
    {
      "type": "Feature",
      "properties": {
        "norad_id": 35631,
        "name": "IRIDIUM 33 DEB",
        "group": "iridium-33-debris",
        "lat": 49.67253910701039,
        "lon": 23.272329693519797,
        "alt_km": 721.9491217981331,
        "timestamp": "2025-12-17T09:00:17.533571+00:00",
        "meta_object_name": "IRIDIUM 33 DEB",
        "meta_object_id": "1997-051RD",
        "meta_epoch": "2025-12-16T20:19:39.185184",
        "meta_mean_motion": 14.47322611,
        "meta_eccentricity": 0.00191933,
        "meta_inclination": 86.3669,
        "meta_ra_of_asc_node": 19.2073,
        "meta_arg_of_pericenter": 105.7414,
        "meta_mean_anomaly": 73.8504,
        "meta_ephemeris_type": 0,
        "meta_classification_type": "U",
        "meta_norad_cat_id": 35631,
        "meta_element_set_no": 999,
        "meta_rev_at_epoch": 87256,
        "meta_bstar": 0.00028855362,
        "meta_mean_motion_dot": 1.079e-05,
        "meta_mean_motion_ddot": 0,
        "tle_line1": "1 35631U 97051RD  25350.84698131  .00001079  00000+0  28855-3 0  9992",
        "tle_line2": "2 35631  86.3669  19.2073 0019193 105.7414  73.8504 14.47322611872561"
      },
      "geometry": {
        "type": "Point",
        "coordinates": [
          23.272329693519797,
          49.67253910701039
        ]
      }
    },
    {
      "type": "Feature",
      "properties": {
        "norad_id": 35680,
        "name": "IRIDIUM 33 DEB",
        "group": "iridium-33-debris",
        "lat": -56.90668362391661,
        "lon": 13.467026344274549,
        "alt_km": 744.5772971545975,
        "timestamp": "2025-12-17T09:00:17.533587+00:00",
        "meta_object_name": "IRIDIUM 33 DEB",
        "meta_object_id": "1997-051RJ",
        "meta_epoch": "2025-12-14T08:38:54.081024",
        "meta_mean_motion": 14.20954301,
        "meta_eccentricity": 0.01504449,
        "meta_inclination": 86.1029,
        "meta_ra_of_asc_node": 20.8049,
        "meta_arg_of_pericenter": 273.3107,
        "meta_mean_anomaly": 95.5624,
        "meta_ephemeris_type": 0,
        "meta_classification_type": "U",
        "meta_norad_cat_id": 35680,
        "meta_element_set_no": 999,
        "meta_rev_at_epoch": 60724,
        "meta_bstar": 0.0038932879,
        "meta_mean_motion_dot": 9.473e-05,
        "meta_mean_motion_ddot": 0,
        "tle_line1": "1 35680U 97051RJ  25348.36034816  .00009473  00000+0  38933-2 0  9997",
        "tle_line2": "2 35680  86.1029  20.8049 0150444 273.3107  95.5624 14.20954301607243"
      },
      "geometry": {
        "type": "Point",
        "coordinates": [
          13.467026344274549,
          -56.90668362391661
        ]
      }
    }
  ]
}